[{"OBJECT_NAME":"STARLINK-31567","OBJECT_ID":"2024-045X","EPOCH":"2026-03-09T10:21:09.345024","MEAN_MOTION":15.27599181,"ECCENTRICITY":7.911e-5,"INCLINATION":43.0003,"RA_OF_ASC_NODE":93.8497,"ARG_OF_PERICENTER":244.6072,"MEAN_ANOMALY":115.4698,"EPHEMERIS_TYPE":0,"CLASSIFICATION_TYPE":"U","NORAD_CAT_ID":59199,"ELEMENT_SET_NO":999,"REV_AT_EPOCH":11312,"BSTAR":-0.00018394192,"MEAN_MOTION_DOT":-5.323e-5,"MEAN_MOTION_DDOT":0},{"OBJECT_NAME":"WT 1B","OBJECT_ID":"2019-032G","EPOCH":"2026-03-09T21:42:21.881088","MEAN_MOTION":15.25021485,"ECCENTRICITY":0.0008099,"INCLINATION":44.9738,"RA_OF_ASC_NODE":242.0209,"ARG_OF_PERICENTER":49.7728,"MEAN_ANOMALY":310.3861,"EPHEMERIS_TYPE":0,"CLASSIFICATION_TYPE":"U","NORAD_CAT_ID":44316,"ELEMENT_SET_NO":999,"REV_AT_EPOCH":37191,"BSTAR":0.00065022477,"MEAN_MOTION_DOT":0.00016297,"MEAN_MOTION_DDOT":0}]
